{
  "type": "FeatureCollection",
  "features": [
    {
      "type": "Feature",
      "properties": {
        "norad_id": 64902,
        "name": "CO3D 2",
        "group": "resource",
        "lat": 63.0604882875314,
        "lon": 46.78635082904014,
        "alt_km": 503.24465423424044,
        "timestamp": "2025-12-11T08:58:26.772321+00:00",
        "meta_object_name": "CO3D 2",
        "meta_object_id": "2025-156D",
        "meta_epoch": "2025-12-09T12:27:23.938848",
        "meta_mean_motion": 15.20057842,
        "meta_eccentricity": 0.00090681,
        "meta_inclination": 97.4213,
        "meta_ra_of_asc_node": 59.8234,
        "meta_arg_of_pericenter": 303.4369,
        "meta_mean_anomaly": 56.5998,
        "meta_ephemeris_type": 0,
        "meta_classification_type": "U",
        "meta_norad_cat_id": 64902,
        "meta_element_set_no": 999,
        "meta_rev_at_epoch": 2071,
        "meta_bstar": 0.00028838885,
        "meta_mean_motion_dot": 6.16e-05,
        "meta_mean_motion_ddot": 0,
        "tle_line1": "1 64902U 25156D   25343.51902707  .00006160  00000+0  28839-3 0  9993",
        "tle_line2": "2 64902  97.4213  59.8234 0009068 303.4369  56.5998 15.20057842 20717"
      },
      "geometry": {
        "type": "Point",
        "coordinates": [
          46.78635082904014,
          63.0604882875314
        ]
      }
    },
    {
      "type": "Feature",
      "properties": {
        "norad_id": 64903,
        "name": "CO3D 1",
        "group": "resource",
        "lat": 63.27651238097437,
        "lon": 46.62813825417076,
        "alt_km": 498.5030395659742,
        "timestamp": "2025-12-11T08:58:26.772331+00:00",
        "meta_object_name": "CO3D 1",
        "meta_object_id": "2025-156E",
        "meta_epoch": "2025-12-11T05:31:58.834848",
        "meta_mean_motion": 15.20213897,
        "meta_eccentricity": 9.32e-05,
        "meta_inclination": 97.4338,
        "meta_ra_of_asc_node": 61.5178,
        "meta_arg_of_pericenter": 96.9471,
        "meta_mean_anomaly": 263.187,
        "meta_ephemeris_type": 0,
        "meta_classification_type": "U",
        "meta_norad_cat_id": 64903,
        "meta_element_set_no": 999,
        "meta_rev_at_epoch": 2097,
        "meta_bstar": 0.00040425,
        "meta_mean_motion_dot": 8.697e-05,
        "meta_mean_motion_ddot": 0,
        "tle_line1": "1 64903U 25156E   25345.23054207  .00008697  00000+0  40425-3 0  9990",
        "tle_line2": "2 64903  97.4338  61.5178 0000932  96.9471 263.1870 15.20213897 20979"
      },
      "geometry": {
        "type": "Point",
        "coordinates": [
          46.62813825417076,
          63.27651238097437
        ]
      }
    },
    {
      "type": "Feature",
      "properties": {
        "norad_id": 66514,
        "name": "SENTINEL-6B",
        "group": "resource",
        "lat": -57.4139881578037,
        "lon": 121.178197795927,
        "alt_km": 1316.8655943735675,
        "timestamp": "2025-12-11T08:58:26.772341+00:00",
        "meta_object_name": "SENTINEL-6B",
        "meta_object_id": "2025-264A",
        "meta_epoch": "2025-12-08T23:22:28.347744",
        "meta_mean_motion": 12.8403254,
        "meta_eccentricity": 0.00210881,
        "meta_inclination": 66.0391,
        "meta_ra_of_asc_node": 170.2706,
        "meta_arg_of_pericenter": 268.225,
        "meta_mean_anomaly": 91.6352,
        "meta_ephemeris_type": 0,
        "meta_classification_type": "U",
        "meta_norad_cat_id": 66514,
        "meta_element_set_no": 999,
        "meta_rev_at_epoch": 280,
        "meta_bstar": -0.0054273268,
        "meta_mean_motion_dot": -1.368e-05,
        "meta_mean_motion_ddot": 0,
        "tle_line1": "1 66514U 25264A   25342.97393921 -.00001368  00000+0 -54273-2 0  9992",
        "tle_line2": "2 66514  66.0391 170.2706 0021088 268.2250  91.6352 12.84032540  2801"
      },
      "geometry": {
        "type": "Point",
        "coordinates": [
          121.178197795927,
          -57.4139881578037
        ]
      }
    }
  ]
}